CCSDS_OMM_VERS = 2.0
CREATION_DATE  = 
ORIGINATOR     = 

OBJECT_NAME    = STARLINK-36550
OBJECT_ID      = 2026-012C
CENTER_NAME    = EARTH
REF_FRAME      = TEME
TIME_SYSTEM    = UTC
MEAN_ELEMENT_THEORY = SGP/SGP4

EPOCH          = 2026-02-02T14:00:01.999872
MEAN_MOTION    = 15.82409865
ECCENTRICITY   = .00017003
INCLINATION    = 42.9958
RA_OF_ASC_NODE = 156.6689
ARG_OF_PERICENTER = 283.2679
MEAN_ANOMALY   = 199.7189

EPHEMERIS_TYPE = 0
CLASSIFICATION_TYPE = U
NORAD_CAT_ID   = 67495
ELEMENT_SET_NO = 999
REV_AT_EPOCH   = 342
BSTAR          = -.79935482E-2
MEAN_MOTION_DOT = -.1511887E-1
MEAN_MOTION_DDOT = 0

CCSDS_OMM_VERS = 2.0
CREATION_DATE  = 
ORIGINATOR     = 

OBJECT_NAME    = STARLINK-36534
OBJECT_ID      = 2026-012D
CENTER_NAME    = EARTH
REF_FRAME      = TEME
TIME_SYSTEM    = UTC
MEAN_ELEMENT_THEORY = SGP/SGP4

EPOCH          = 2026-02-02T14:00:01.999872
MEAN_MOTION    = 15.81968925
ECCENTRICITY   = .00014721
INCLINATION    = 42.9962
RA_OF_ASC_NODE = 156.6485
ARG_OF_PERICENTER = 266.0199
MEAN_ANOMALY   = 225.2266

EPHEMERIS_TYPE = 0
CLASSIFICATION_TYPE = U
NORAD_CAT_ID   = 67496
ELEMENT_SET_NO = 999
REV_AT_EPOCH   = 336
BSTAR          = .46955498E-3
MEAN_MOTION_DOT = .99258E-3
MEAN_MOTION_DDOT = 0

CCSDS_OMM_VERS = 2.0
CREATION_DATE  = 
ORIGINATOR     = 

OBJECT_NAME    = STARLINK-36555
OBJECT_ID      = 2026-012E
CENTER_NAME    = EARTH
REF_FRAME      = TEME
TIME_SYSTEM    = UTC
MEAN_ELEMENT_THEORY = SGP/SGP4

EPOCH          = 2026-02-02T14:00:01.999872
MEAN_MOTION    = 15.81967270
ECCENTRICITY   = .00012432
INCLINATION    = 42.9961
RA_OF_ASC_NODE = 156.6598
ARG_OF_PERICENTER = 291.0394
MEAN_ANOMALY   = 195.6532

EPHEMERIS_TYPE = 0
CLASSIFICATION_TYPE = U
NORAD_CAT_ID   = 67497
ELEMENT_SET_NO = 999
REV_AT_EPOCH   = 342
BSTAR          = .31140879E-3
MEAN_MOTION_DOT = .65384E-3
MEAN_MOTION_DDOT = 0

CCSDS_OMM_VERS = 2.0
CREATION_DATE  = 
ORIGINATOR     = 

OBJECT_NAME    = STARLINK-36081
OBJECT_ID      = 2026-012F
CENTER_NAME    = EARTH
REF_FRAME      = TEME
TIME_SYSTEM    = UTC
MEAN_ELEMENT_THEORY = SGP/SGP4

EPOCH          = 2026-02-02T14:00:01.999872
MEAN_MOTION    = 15.82203806
ECCENTRICITY   = .00013272
INCLINATION    = 42.9962
RA_OF_ASC_NODE = 156.6336
ARG_OF_PERICENTER = 287.4369
MEAN_ANOMALY   = 209.5062

EPHEMERIS_TYPE = 0
CLASSIFICATION_TYPE = U
NORAD_CAT_ID   = 67498
ELEMENT_SET_NO = 999
REV_AT_EPOCH   = 336
BSTAR          = -.10203044E-1
MEAN_MOTION_DOT = -.1893628E-1
MEAN_MOTION_DDOT = 0

CCSDS_OMM_VERS = 2.0
CREATION_DATE  = 
ORIGINATOR     = 

OBJECT_NAME    = STARLINK-36558
OBJECT_ID      = 2026-012G
CENTER_NAME    = EARTH
REF_FRAME      = TEME
TIME_SYSTEM    = UTC
MEAN_ELEMENT_THEORY = SGP/SGP4

EPOCH          = 2026-02-02T14:00:01.999872
MEAN_MOTION    = 15.82191341
ECCENTRICITY   = .00012655
INCLINATION    = 42.9960
RA_OF_ASC_NODE = 156.6266
ARG_OF_PERICENTER = 287.4778
MEAN_ANOMALY   = 212.3606

EPHEMERIS_TYPE = 0
CLASSIFICATION_TYPE = U
NORAD_CAT_ID   = 67499
ELEMENT_SET_NO = 999
REV_AT_EPOCH   = 342
BSTAR          = -.10241927E-1
MEAN_MOTION_DOT = -.1898868E-1
MEAN_MOTION_DDOT = 0

CCSDS_OMM_VERS = 2.0
CREATION_DATE  = 
ORIGINATOR     = 

OBJECT_NAME    = STARLINK-36557
OBJECT_ID      = 2026-012H
CENTER_NAME    = EARTH
REF_FRAME      = TEME
TIME_SYSTEM    = UTC
MEAN_ELEMENT_THEORY = SGP/SGP4

EPOCH          = 2026-02-02T14:00:01.999872
MEAN_MOTION    = 15.81931624
ECCENTRICITY   = .00009022
INCLINATION    = 42.9963
RA_OF_ASC_NODE = 156.6134
ARG_OF_PERICENTER = 281.2457
MEAN_ANOMALY   = 223.4024

EPHEMERIS_TYPE = 0
CLASSIFICATION_TYPE = U
NORAD_CAT_ID   = 67500
ELEMENT_SET_NO = 999
REV_AT_EPOCH   = 342
BSTAR          = .62306975E-3
MEAN_MOTION_DOT = .132157E-2
MEAN_MOTION_DDOT = 0

CCSDS_OMM_VERS = 2.0
CREATION_DATE  = 
ORIGINATOR     = 

OBJECT_NAME    = STARLINK-36433
OBJECT_ID      = 2026-012J
CENTER_NAME    = EARTH
REF_FRAME      = TEME
TIME_SYSTEM    = UTC
MEAN_ELEMENT_THEORY = SGP/SGP4

EPOCH          = 2026-02-02T14:00:01.999872
MEAN_MOTION    = 15.81947866
ECCENTRICITY   = .00019178
INCLINATION    = 42.9961
RA_OF_ASC_NODE = 156.6035
ARG_OF_PERICENTER = 278.6021
MEAN_ANOMALY   = 230.2441

EPHEMERIS_TYPE = 0
CLASSIFICATION_TYPE = U
NORAD_CAT_ID   = 67501
ELEMENT_SET_NO = 999
REV_AT_EPOCH   = 342
BSTAR          = .40393514E-3
MEAN_MOTION_DOT = .85091E-3
MEAN_MOTION_DDOT = 0

CCSDS_OMM_VERS = 2.0
CREATION_DATE  = 
ORIGINATOR     = 

OBJECT_NAME    = STARLINK-36554
OBJECT_ID      = 2026-012K
CENTER_NAME    = EARTH
REF_FRAME      = TEME
TIME_SYSTEM    = UTC
MEAN_ELEMENT_THEORY = SGP/SGP4

EPOCH          = 2026-01-31T12:59:37.999392
MEAN_MOTION    = 15.90127469
ECCENTRICITY   = .00023045
INCLINATION    = 42.9959
RA_OF_ASC_NODE = 169.1781
ARG_OF_PERICENTER = 283.2379
MEAN_ANOMALY   = 76.8239

EPHEMERIS_TYPE = 0
CLASSIFICATION_TYPE = U
NORAD_CAT_ID   = 67502
ELEMENT_SET_NO = 999
REV_AT_EPOCH   = 202
BSTAR          = -.18362903E-2
MEAN_MOTION_DOT = -.54208E-2
MEAN_MOTION_DDOT = 0

CCSDS_OMM_VERS = 2.0
CREATION_DATE  = 
ORIGINATOR     = 

OBJECT_NAME    = STARLINK-36552
OBJECT_ID      = 2026-012L
CENTER_NAME    = EARTH
REF_FRAME      = TEME
TIME_SYSTEM    = UTC
MEAN_ELEMENT_THEORY = SGP/SGP4

EPOCH          = 2026-02-02T14:00:01.999872
MEAN_MOTION    = 15.82013545
ECCENTRICITY   = .00015135
INCLINATION    = 42.9963
RA_OF_ASC_NODE = 156.5815
ARG_OF_PERICENTER = 288.4412
MEAN_ANOMALY   = 229.2157

EPHEMERIS_TYPE = 0
CLASSIFICATION_TYPE = U
NORAD_CAT_ID   = 67503
ELEMENT_SET_NO = 999
REV_AT_EPOCH   = 342
BSTAR          = -.1088876E-3
MEAN_MOTION_DOT = -.23396E-3
MEAN_MOTION_DDOT = 0

CCSDS_OMM_VERS = 2.0
CREATION_DATE  = 
ORIGINATOR     = 

OBJECT_NAME    = STARLINK-36512
OBJECT_ID      = 2026-012M
CENTER_NAME    = EARTH
REF_FRAME      = TEME
TIME_SYSTEM    = UTC
MEAN_ELEMENT_THEORY = SGP/SGP4

EPOCH          = 2026-02-02T14:00:01.999872
MEAN_MOTION    = 15.82095765
ECCENTRICITY   = .00017366
INCLINATION    = 42.9962
RA_OF_ASC_NODE = 156.5681
ARG_OF_PERICENTER = 274.3588
MEAN_ANOMALY   = 248.5870

EPHEMERIS_TYPE = 0
CLASSIFICATION_TYPE = U
NORAD_CAT_ID   = 67504
ELEMENT_SET_NO = 999
REV_AT_EPOCH   = 342
BSTAR          = -.74745007E-3
MEAN_MOTION_DOT = -.155711E-2
MEAN_MOTION_DDOT = 0

CCSDS_OMM_VERS = 2.0
CREATION_DATE  = 
ORIGINATOR     = 

OBJECT_NAME    = STARLINK-36545
OBJECT_ID      = 2026-012N
CENTER_NAME    = EARTH
REF_FRAME      = TEME
TIME_SYSTEM    = UTC
MEAN_ELEMENT_THEORY = SGP/SGP4

EPOCH          = 2026-02-02T14:00:01.999872
MEAN_MOTION    = 15.82149779
ECCENTRICITY   = .00015989
INCLINATION    = 42.9963
RA_OF_ASC_NODE = 156.5599
ARG_OF_PERICENTER = 277.3360
MEAN_ANOMALY   = 248.6526

EPHEMERIS_TYPE = 0
CLASSIFICATION_TYPE = U
NORAD_CAT_ID   = 67505
ELEMENT_SET_NO = 999
REV_AT_EPOCH   = 342
BSTAR          = -.11770126E-2
MEAN_MOTION_DOT = -.243072E-2
MEAN_MOTION_DDOT = 0

CCSDS_OMM_VERS = 2.0
CREATION_DATE  = 
ORIGINATOR     = 

OBJECT_NAME    = STARLINK-36553
OBJECT_ID      = 2026-012P
CENTER_NAME    = EARTH
REF_FRAME      = TEME
TIME_SYSTEM    = UTC
MEAN_ELEMENT_THEORY = SGP/SGP4

EPOCH          = 2026-02-02T14:00:01.999872
MEAN_MOTION    = 15.82264543
ECCENTRICITY   = .00010502
INCLINATION    = 42.9966
RA_OF_ASC_NODE = 156.5499
ARG_OF_PERICENTER = 281.8222
MEAN_ANOMALY   = 248.4431

EPHEMERIS_TYPE = 0
CLASSIFICATION_TYPE = U
NORAD_CAT_ID   = 67506
ELEMENT_SET_NO = 999
REV_AT_EPOCH   = 342
BSTAR          = -.20056614E-2
MEAN_MOTION_DOT = -.408263E-2
MEAN_MOTION_DDOT = 0

