STARLINK-36550          
1 67495U 26012C   26033.58335648 -.01511887  00000+0 -79935-2 0  9995
2 67495  42.9958 156.6689 0001700 283.2679 199.7189 15.82409865  3427
STARLINK-36534          
1 67496U 26012D   26033.58335648  .00099258  00000+0  46955-3 0  9993
2 67496  42.9962 156.6485 0001472 266.0199 225.2266 15.81968925  3369
STARLINK-36555          
1 67497U 26012E   26033.58335648  .00065384  00000+0  31141-3 0  9998
2 67497  42.9961 156.6598 0001243 291.0394 195.6532 15.81967270  3420
STARLINK-36081          
1 67498U 26012F   26033.58335648 -.01893628  00000+0 -10203-1 0  9996
2 67498  42.9962 156.6336 0001327 287.4369 209.5062 15.82203806  3361
STARLINK-36558          
1 67499U 26012G   26033.58335648 -.01898868  00000+0 -10242-1 0  9991
2 67499  42.9960 156.6266 0001265 287.4778 212.3606 15.82191341  3420
STARLINK-36557          
1 67500U 26012H   26033.58335648  .00132157  00000+0  62307-3 0  9994
2 67500  42.9963 156.6134 0000902 281.2457 223.4024 15.81931624  3425
STARLINK-36433          
1 67501U 26012J   26033.58335648  .00085091  00000+0  40394-3 0  9991
2 67501  42.9961 156.6035 0001917 278.6021 230.2441 15.81947866  3422
STARLINK-36554          
1 67502U 26012K   26031.54141203 -.00542080  00000+0 -18363-2 0  9996
2 67502  42.9959 169.1781 0002304 283.2379  76.8239 15.90127469  2029
STARLINK-36552          
1 67503U 26012L   26033.58335648 -.00023396  00000+0 -10889-3 0  9991
2 67503  42.9963 156.5815 0001513 288.4412 229.2157 15.82013545  3427
STARLINK-36512          
1 67504U 26012M   26033.58335648 -.00155711  00000+0 -74745-3 0  9990
2 67504  42.9962 156.5681 0001736 274.3588 248.5870 15.82095765  3423
STARLINK-36545          
1 67505U 26012N   26033.58335648 -.00243072  00000+0 -11770-2 0  9997
2 67505  42.9963 156.5599 0001598 277.3360 248.6526 15.82149779  3424
STARLINK-36553          
1 67506U 26012P   26033.58335648 -.00408263  00000+0 -20057-2 0  9991
2 67506  42.9966 156.5499 0001050 281.8222 248.4431 15.82264543  3427
